{"type": "FeatureCollection", "features": [{"type": "Feature", "properties": {"norad_id": 2807, "name": "OPS 7218 (TRANSIT 16)", "group": "nnss", "lat": -78.14906012824197, "lon": -7.155366237857636, "alt_km": 1088.5747090590385, "timestamp": "2025-12-01T03:58:49.236207+00:00", "meta": {"OBJECT_NAME": "OPS 7218 (TRANSIT 16)", "OBJECT_ID": "1967-048A", "EPOCH": "2025-11-30T14:42:27.941760", "MEAN_MOTION": 13.50718636, "ECCENTRICITY": 0.0021285, "INCLINATION": 89.6738, "RA_OF_ASC_NODE": 354.4185, "ARG_OF_PERICENTER": 146.856, "MEAN_ANOMALY": 327.3203, "EPHEMERIS_TYPE": 0, "CLASSIFICATION_TYPE": "U", "NORAD_CAT_ID": 2807, "ELEMENT_SET_NO": 999, "REV_AT_EPOCH": 88112, "BSTAR": 0.00017765, "MEAN_MOTION_DOT": 1.25e-06, "MEAN_MOTION_DDOT": 0, "GROUP": "nnss"}, "tle": {"line1": "1 02807U 67048A   25334.61282340  .00000125  00000+0  17765-3 0  9991", "line2": "2 02807  89.6738 354.4185 0021285 146.8560 327.3203 13.50718636881128"}}, "geometry": {"type": "Point", "coordinates": [-7.155366237857636, -78.14906012824197]}}, {"type": "Feature", "properties": {"norad_id": 2965, "name": "OPS 4947 (TRANSIT 17)", "group": "nnss", "lat": -52.30002093835582, "lon": -153.71253806905054, "alt_km": 1039.4698246256285, "timestamp": "2025-12-01T03:58:49.236233+00:00", "meta": {"OBJECT_NAME": "OPS 4947 (TRANSIT 17)", "OBJECT_ID": "1967-092A", "EPOCH": "2025-11-30T14:57:53.379936", "MEAN_MOTION": 13.53449029, "ECCENTRICITY": 0.0045703, "INCLINATION": 89.2511, "RA_OF_ASC_NODE": 25.359, "ARG_OF_PERICENTER": 270.9596, "MEAN_ANOMALY": 200.786, "EPHEMERIS_TYPE": 0, "CLASSIFICATION_TYPE": "U", "NORAD_CAT_ID": 2965, "ELEMENT_SET_NO": 999, "REV_AT_EPOCH": 86933, "BSTAR": 0.00017207, "MEAN_MOTION_DOT": 1.27e-06, "MEAN_MOTION_DDOT": 0, "GROUP": "nnss"}, "tle": {"line1": "1 02965U 67092A   25334.62353449  .00000127  00000+0  17207-3 0  9998", "line2": "2 02965  89.2511  25.3590 0045703 270.9596 200.7860 13.53449029869333"}}, "geometry": {"type": "Point", "coordinates": [-153.71253806905054, -52.30002093835582]}}, {"type": "Feature", "properties": {"norad_id": 3133, "name": "OPS 7034 (TRANSIT 18)", "group": "nnss", "lat": 80.48888662614287, "lon": 93.76568013011293, "alt_km": 1071.3815485457953, "timestamp": "2025-12-01T03:58:49.236248+00:00", "meta": {"OBJECT_NAME": "OPS 7034 (TRANSIT 18)", "OBJECT_ID": "1968-012A", "EPOCH": "2025-11-30T18:53:02.695200", "MEAN_MOTION": 13.51561709, "ECCENTRICITY": 0.0072754, "INCLINATION": 90.0266, "RA_OF_ASC_NODE": 273.6058, "ARG_OF_PERICENTER": 203.9679, "MEAN_ANOMALY": 213.3129, "EPHEMERIS_TYPE": 0, "CLASSIFICATION_TYPE": "U", "NORAD_CAT_ID": 3133, "ELEMENT_SET_NO": 999, "REV_AT_EPOCH": 56757, "BSTAR": 0.00013504, "MEAN_MOTION_DOT": 9.9e-07, "MEAN_MOTION_DDOT": 0, "GROUP": "nnss"}, "tle": {"line1": "1 03133U 68012A   25334.78683675  .00000099  00000+0  13504-3 0  9997", "line2": "2 03133  90.0266 273.6058 0072754 203.9679 213.3129 13.51561709567576"}}, "geometry": {"type": "Point", "coordinates": [93.76568013011293, 80.48888662614287]}}, {"type": "Feature", "properties": {"norad_id": 4507, "name": "NNSS 19 (TRANSIT 19)", "group": "nnss", "lat": 83.97971382127858, "lon": -125.5285568705686, "alt_km": 1115.923336099857, "timestamp": "2025-12-01T03:58:49.236260+00:00", "meta": {"OBJECT_NAME": "NNSS 19 (TRANSIT 19)", "OBJECT_ID": "1970-067A", "EPOCH": "2025-11-30T18:41:03.755616", "MEAN_MOTION": 13.51310012, "ECCENTRICITY": 0.0171395, "INCLINATION": 90.0057, "RA_OF_ASC_NODE": 234.5253, "ARG_OF_PERICENTER": 328.2664, "MEAN_ANOMALY": 30.8244, "EPHEMERIS_TYPE": 0, "CLASSIFICATION_TYPE": "U", "NORAD_CAT_ID": 4507, "ELEMENT_SET_NO": 999, "REV_AT_EPOCH": 72060, "BSTAR": 0.00019713, "MEAN_MOTION_DOT": 1.48e-06, "MEAN_MOTION_DDOT": 0, "GROUP": "nnss"}, "tle": {"line1": "1 04507U 70067A   25334.77851569  .00000148  00000+0  19713-3 0  9997", "line2": "2 04507  90.0057 234.5253 0171395 328.2664  30.8244 13.51310012720603"}}, "geometry": {"type": "Point", "coordinates": [-125.5285568705686, 83.97971382127858]}}, {"type": "Feature", "properties": {"norad_id": 6909, "name": "NNSS 20 (TRANSIT 20)", "group": "nnss", "lat": 36.01653509382509, "lon": -104.66711207946102, "alt_km": 963.3473718173545, "timestamp": "2025-12-01T03:58:49.236271+00:00", "meta": {"OBJECT_NAME": "NNSS 20 (TRANSIT 20)", "OBJECT_ID": "1973-081A", "EPOCH": "2025-11-30T19:02:58.299648", "MEAN_MOTION": 13.71426111, "ECCENTRICITY": 0.0156378, "INCLINATION": 89.8555, "RA_OF_ASC_NODE": 255.2334, "ARG_OF_PERICENTER": 113.6982, "MEAN_ANOMALY": 248.0678, "EPHEMERIS_TYPE": 0, "CLASSIFICATION_TYPE": "U", "NORAD_CAT_ID": 6909, "ELEMENT_SET_NO": 999, "REV_AT_EPOCH": 80197, "BSTAR": 0.00022027, "MEAN_MOTION_DOT": 2.28e-06, "MEAN_MOTION_DDOT": 0, "GROUP": "nnss"}, "tle": {"line1": "1 06909U 73081A   25334.79373032  .00000228  00000+0  22027-3 0  9991", "line2": "2 06909  89.8555 255.2334 0156378 113.6982 248.0678 13.71426111801977"}}, "geometry": {"type": "Point", "coordinates": [-104.66711207946102, 36.01653509382509]}}, {"type": "Feature", "properties": {"norad_id": 10457, "name": "TRANSAT", "group": "nnss", "lat": -5.765727831061926, "lon": -100.95781050939809, "alt_km": 1065.5477387038754, "timestamp": "2025-12-01T03:58:49.236283+00:00", "meta": {"OBJECT_NAME": "TRANSAT", "OBJECT_ID": "1977-106A", "EPOCH": "2025-11-30T18:43:05.183040", "MEAN_MOTION": 13.48940645, "ECCENTRICITY": 0.0024344, "INCLINATION": 89.6481, "RA_OF_ASC_NODE": 79.0203, "ARG_OF_PERICENTER": 224.9423, "MEAN_ANOMALY": 247.8621, "EPHEMERIS_TYPE": 0, "CLASSIFICATION_TYPE": "U", "NORAD_CAT_ID": 10457, "ELEMENT_SET_NO": 999, "REV_AT_EPOCH": 36582, "BSTAR": 0.0001026, "MEAN_MOTION_DOT": 7.4e-07, "MEAN_MOTION_DDOT": 0, "GROUP": "nnss"}, "tle": {"line1": "1 10457U 77106A   25334.77992110  .00000074  00000+0  10260-3 0  9993", "line2": "2 10457  89.6481  79.0203 0024344 224.9423 247.8621 13.48940645365827"}}, "geometry": {"type": "Point", "coordinates": [-100.95781050939809, -5.765727831061926]}}, {"type": "Feature", "properties": {"norad_id": 12458, "name": "NOVA 1", "group": "nnss", "lat": 75.06452263320425, "lon": 92.10362633912302, "alt_km": 1158.8635210393631, "timestamp": "2025-12-01T03:58:49.236293+00:00", "meta": {"OBJECT_NAME": "NOVA 1", "OBJECT_ID": "1981-044A", "EPOCH": "2025-11-30T20:56:35.066112", "MEAN_MOTION": 13.23276575, "ECCENTRICITY": 0.0015511, "INCLINATION": 89.8521, "RA_OF_ASC_NODE": 91.553, "ARG_OF_PERICENTER": 133.2385, "MEAN_ANOMALY": 345.9736, "EPHEMERIS_TYPE": 0, "CLASSIFICATION_TYPE": "U", "NORAD_CAT_ID": 12458, "ELEMENT_SET_NO": 999, "REV_AT_EPOCH": 15029, "BSTAR": 9.4631e-05, "MEAN_MOTION_DOT": 4.9e-07, "MEAN_MOTION_DDOT": 0, "GROUP": "nnss"}, "tle": {"line1": "1 12458U 81044A   25334.87262808  .00000049  00000+0  94631-4 0  9994", "line2": "2 12458  89.8521  91.5530 0015511 133.2385 345.9736 13.23276575150291"}}, "geometry": {"type": "Point", "coordinates": [92.10362633912302, 75.06452263320425]}}, {"type": "Feature", "properties": {"norad_id": 15362, "name": "NOVA 3", "group": "nnss", "lat": -42.68952376508867, "lon": 80.5113123777295, "alt_km": 1163.539305906802, "timestamp": "2025-12-01T03:58:49.236304+00:00", "meta": {"OBJECT_NAME": "NOVA 3", "OBJECT_ID": "1984-110A", "EPOCH": "2025-11-30T17:54:24.861312", "MEAN_MOTION": 13.23042454, "ECCENTRICITY": 0.0031467, "INCLINATION": 90.1224, "RA_OF_ASC_NODE": 80.3934, "ARG_OF_PERICENTER": 5.6123, "MEAN_ANOMALY": 114.0703, "EPHEMERIS_TYPE": 0, "CLASSIFICATION_TYPE": "U", "NORAD_CAT_ID": 15362, "ELEMENT_SET_NO": 999, "REV_AT_EPOCH": 98540, "BSTAR": 0.0001286, "MEAN_MOTION_DOT": 6.3e-07, "MEAN_MOTION_DDOT": 0, "GROUP": "nnss"}, "tle": {"line1": "1 15362U 84110A   25334.74612108  .00000063  00000+0  12860-3 0  9995", "line2": "2 15362  90.1224  80.3934 0031467   5.6123 114.0703 13.23042454985402"}}, "geometry": {"type": "Point", "coordinates": [80.5113123777295, -42.68952376508867]}}, {"type": "Feature", "properties": {"norad_id": 15935, "name": "OSCAR 30", "group": "nnss", "lat": -38.143882540232546, "lon": -80.47108842327157, "alt_km": 1154.3855742351116, "timestamp": "2025-12-01T03:58:49.236315+00:00", "meta": {"OBJECT_NAME": "OSCAR 30", "OBJECT_ID": "1985-066A", "EPOCH": "2025-11-30T18:29:37.260096", "MEAN_MOTION": 13.36075025, "ECCENTRICITY": 0.0169314, "INCLINATION": 90.1644, "RA_OF_ASC_NODE": 99.6517, "ARG_OF_PERICENTER": 117.3186, "MEAN_ANOMALY": 358.7088, "EPHEMERIS_TYPE": 0, "CLASSIFICATION_TYPE": "U", "NORAD_CAT_ID": 15935, "ELEMENT_SET_NO": 999, "REV_AT_EPOCH": 96293, "BSTAR": 0.00015524, "MEAN_MOTION_DOT": 9.7e-07, "MEAN_MOTION_DDOT": 0, "GROUP": "nnss"}, "tle": {"line1": "1 15935U 85066A   25334.77057014  .00000097  00000+0  15524-3 0  9991", "line2": "2 15935  90.1644  99.6517 0169314 117.3186 358.7088 13.36075025962937"}}, "geometry": {"type": "Point", "coordinates": [-80.47108842327157, -38.143882540232546]}}, {"type": "Feature", "properties": {"norad_id": 15936, "name": "OSCAR 24", "group": "nnss", "lat": -62.47210525448905, "lon": 92.44322521027341, "alt_km": 1259.037663342141, "timestamp": "2025-12-01T03:58:49.236325+00:00", "meta": {"OBJECT_NAME": "OSCAR 24", "OBJECT_ID": "1985-066B", "EPOCH": "2025-11-30T20:09:19.945152", "MEAN_MOTION": 13.35932918, "ECCENTRICITY": 0.017033, "INCLINATION": 90.1784, "RA_OF_ASC_NODE": 92.095, "ARG_OF_PERICENTER": 123.5619, "MEAN_ANOMALY": 46.7565, "EPHEMERIS_TYPE": 0, "CLASSIFICATION_TYPE": "U", "NORAD_CAT_ID": 15936, "ELEMENT_SET_NO": 999, "REV_AT_EPOCH": 96484, "BSTAR": 0.00011371, "MEAN_MOTION_DOT": 7.3e-07, "MEAN_MOTION_DDOT": 0, "GROUP": "nnss"}, "tle": {"line1": "1 15936U 85066B   25334.83981418  .00000073  00000+0  11371-3 0  9993", "line2": "2 15936  90.1784  92.0950 0170330 123.5619  46.7565 13.35932918964849"}}, "geometry": {"type": "Point", "coordinates": [92.44322521027341, -62.47210525448905]}}]}